ONEWEB-0282             
1 49000U 21060AK  26066.56449416  .00000016  00000+0  70738-5 0  9997
2 49000  87.9002 248.9952 0001720  98.7291 261.4035 13.16593241226237
ONEWEB-0283             
1 49001U 21060AL  26066.55340869  .00000067  00000+0  14078-3 0  9998
2 49001  87.9000 248.9971 0001590 102.4598 257.6710 13.16593380226247
ONEWEB-0284             
1 49002U 21060AM  26066.54708459 -.00000035  00000+0 -12569-3 0  9991
2 49002  87.9003 248.9899 0001903  90.7419 269.3931 13.16592885226221
ONEWEB-0285             
1 49075U 21075A   26066.35988976  .00000368  00000+0  98679-3 0  9993
2 49075  87.9004  10.8700 0001848  81.8065 278.3273 13.12442952221853
ONEWEB-0286             
1 49076U 21075B   26066.57067883 -.00000324  00000+0 -93700-3 0  9997
2 49076  87.8990  10.8553 0001741  73.5451 286.5869 13.12443580221234
ONEWEB-0287             
1 49077U 21075C   26066.33625108 -.00000139  00000+0 -39080-3 0  9997
2 49077  87.9146  26.0918 0001865  68.1429 291.9900 13.17649123220214
ONEWEB-0288             
1 49078U 21075D   26066.39462426 -.00000128  00000+0 -39128-3 0  9997
2 49078  87.9000  10.8580 0001876  77.0616 283.0722 13.12441309221833
ONEWEB-0289             
1 49079U 21075E   26066.60272434 -.00000014  00000+0 -70136-4 0  9999
2 49079  87.9153  26.0508 0002279  83.9719 276.1672 13.17648121220821
ONEWEB-0290             
1 49080U 21075F   26066.42401599  .00000253  00000+0  61832-3 0  9992
2 49080  87.9155  26.0544 0002334  89.9828 270.1571 13.17649876220217
ONEWEB-0291             
1 49081U 21075G   26066.63662868 -.00000010  00000+0 -57779-4 0  9993
2 49081  87.9155  26.0206 0002125  72.5973 287.5391 13.17649420220239
ONEWEB-0293             
1 49082U 21075H   26066.58600810  .00000099  00000+0  22203-3 0  9995
2 49082  87.9145  26.0418 0001975  81.1925 278.9430 13.17650283220258
ONEWEB-0294             
1 49083U 21075J   26066.55387281 -.00000303  00000+0 -87627-3 0  9998
2 49083  87.9002  10.8287 0002151  81.7467 278.3906 13.12441445221245
ONEWEB-0295             
1 49084U 21075K   26066.58516839  .00000050  00000+0  95966-4 0  9998
2 49084  87.9145  26.0468 0001972  71.6991 288.4355 13.17650210220217
ONEWEB-0296             
1 49085U 21075L   26066.38107286  .00000338  00000+0  90542-3 0  9992
2 49085  87.9005  10.8664 0002031  71.2540 288.8809 13.12441749221225
ONEWEB-0297             
1 49086U 21075M   26066.33532747 -.00000329  00000+0 -95107-3 0  9996
2 49086  87.8992  10.9005 0001818  76.0499 284.0831 13.12442769221820
ONEWEB-0298             
1 49087U 21075N   26066.58950895  .00000041  00000+0  71239-4 0  9992
2 49087  87.9145  26.0428 0001641  80.0126 280.1190 13.17651262220240
ONEWEB-0299             
1 49088U 21075P   26066.43918360  .00000060  00000+0  12246-3 0  9991
2 49088  87.9163  26.0428 0001846  76.3662 283.7675 13.17650510220209
