[{"OBJECT_NAME":"ONEWEB-0282","OBJECT_ID":"2021-060AK","EPOCH":"2026-03-07T13:32:52.295424","MEAN_MOTION":13.16593241,"ECCENTRICITY":0.00017202,"INCLINATION":87.9002,"RA_OF_ASC_NODE":248.9952,"ARG_OF_PERICENTER":98.7291,"MEAN_ANOMALY":261.4035,"EPHEMERIS_TYPE":0,"CLASSIFICATION_TYPE":"U","NORAD_CAT_ID":49000,"ELEMENT_SET_NO":999,"REV_AT_EPOCH":22623,"BSTAR":7.073777e-6,"MEAN_MOTION_DOT":1.6e-7,"MEAN_MOTION_DDOT":0},{"OBJECT_NAME":"ONEWEB-0283","OBJECT_ID":"2021-060AL","EPOCH":"2026-03-07T13:16:54.510816","MEAN_MOTION":13.1659338,"ECCENTRICITY":0.000159,"INCLINATION":87.9,"RA_OF_ASC_NODE":248.9971,"ARG_OF_PERICENTER":102.4598,"MEAN_ANOMALY":257.671,"EPHEMERIS_TYPE":0,"CLASSIFICATION_TYPE":"U","NORAD_CAT_ID":49001,"ELEMENT_SET_NO":999,"REV_AT_EPOCH":22624,"BSTAR":0.00014077644,"MEAN_MOTION_DOT":6.7e-7,"MEAN_MOTION_DDOT":0},{"OBJECT_NAME":"ONEWEB-0284","OBJECT_ID":"2021-060AM","EPOCH":"2026-03-07T13:07:48.108576","MEAN_MOTION":13.16592885,"ECCENTRICITY":0.00019039,"INCLINATION":87.9003,"RA_OF_ASC_NODE":248.9899,"ARG_OF_PERICENTER":90.7419,"MEAN_ANOMALY":269.3931,"EPHEMERIS_TYPE":0,"CLASSIFICATION_TYPE":"U","NORAD_CAT_ID":49002,"ELEMENT_SET_NO":999,"REV_AT_EPOCH":22622,"BSTAR":-0.00012569416,"MEAN_MOTION_DOT":-3.5e-7,"MEAN_MOTION_DDOT":0},{"OBJECT_NAME":"ONEWEB-0285","OBJECT_ID":"2021-075A","EPOCH":"2026-03-07T08:38:14.475264","MEAN_MOTION":13.12442952,"ECCENTRICITY":0.00018482,"INCLINATION":87.9004,"RA_OF_ASC_NODE":10.87,"ARG_OF_PERICENTER":81.8065,"MEAN_ANOMALY":278.3273,"EPHEMERIS_TYPE":0,"CLASSIFICATION_TYPE":"U","NORAD_CAT_ID":49075,"ELEMENT_SET_NO":999,"REV_AT_EPOCH":22185,"BSTAR":0.00098678672,"MEAN_MOTION_DOT":3.68e-6,"MEAN_MOTION_DDOT":0},{"OBJECT_NAME":"ONEWEB-0286","OBJECT_ID":"2021-075B","EPOCH":"2026-03-07T13:41:46.650912","MEAN_MOTION":13.1244358,"ECCENTRICITY":0.00017413,"INCLINATION":87.899,"RA_OF_ASC_NODE":10.8553,"ARG_OF_PERICENTER":73.5451,"MEAN_ANOMALY":286.5869,"EPHEMERIS_TYPE":0,"CLASSIFICATION_TYPE":"U","NORAD_CAT_ID":49076,"ELEMENT_SET_NO":999,"REV_AT_EPOCH":22123,"BSTAR":-0.00093700115,"MEAN_MOTION_DOT":-3.24e-6,"MEAN_MOTION_DDOT":0},{"OBJECT_NAME":"ONEWEB-0287","OBJECT_ID":"2021-075C","EPOCH":"2026-03-07T08:04:12.093312","MEAN_MOTION":13.17649123,"ECCENTRICITY":0.00018654,"INCLINATION":87.9146,"RA_OF_ASC_NODE":26.0918,"ARG_OF_PERICENTER":68.1429,"MEAN_ANOMALY":291.99,"EPHEMERIS_TYPE":0,"CLASSIFICATION_TYPE":"U","NORAD_CAT_ID":49077,"ELEMENT_SET_NO":999,"REV_AT_EPOCH":22021,"BSTAR":-0.00039080038,"MEAN_MOTION_DOT":-1.39e-6,"MEAN_MOTION_DDOT":0},{"OBJECT_NAME":"ONEWEB-0288","OBJECT_ID":"2021-075D","EPOCH":"2026-03-07T09:28:15.536064","MEAN_MOTION":13.12441309,"ECCENTRICITY":0.0001876,"INCLINATION":87.9,"RA_OF_ASC_NODE":10.858,"ARG_OF_PERICENTER":77.0616,"MEAN_ANOMALY":283.0722,"EPHEMERIS_TYPE":0,"CLASSIFICATION_TYPE":"U","NORAD_CAT_ID":49078,"ELEMENT_SET_NO":999,"REV_AT_EPOCH":22183,"BSTAR":-0.00039127504,"MEAN_MOTION_DOT":-1.28e-6,"MEAN_MOTION_DDOT":0},{"OBJECT_NAME":"ONEWEB-0289","OBJECT_ID":"2021-075E","EPOCH":"2026-03-07T14:27:55.382976","MEAN_MOTION":13.17648121,"ECCENTRICITY":0.00022793,"INCLINATION":87.9153,"RA_OF_ASC_NODE":26.0508,"ARG_OF_PERICENTER":83.9719,"MEAN_ANOMALY":276.1672,"EPHEMERIS_TYPE":0,"CLASSIFICATION_TYPE":"U","NORAD_CAT_ID":49079,"ELEMENT_SET_NO":999,"REV_AT_EPOCH":22082,"BSTAR":-7.013557e-5,"MEAN_MOTION_DOT":-1.4e-7,"MEAN_MOTION_DDOT":0},{"OBJECT_NAME":"ONEWEB-0290","OBJECT_ID":"2021-075F","EPOCH":"2026-03-07T10:10:34.981536","MEAN_MOTION":13.17649876,"ECCENTRICITY":0.00023342,"INCLINATION":87.9155,"RA_OF_ASC_NODE":26.0544,"ARG_OF_PERICENTER":89.9828,"MEAN_ANOMALY":270.1571,"EPHEMERIS_TYPE":0,"CLASSIFICATION_TYPE":"U","NORAD_CAT_ID":49080,"ELEMENT_SET_NO":999,"REV_AT_EPOCH":22021,"BSTAR":0.00061832035,"MEAN_MOTION_DOT":2.53e-6,"MEAN_MOTION_DDOT":0},{"OBJECT_NAME":"ONEWEB-0291","OBJECT_ID":"2021-075G","EPOCH":"2026-03-07T15:16:44.717952","MEAN_MOTION":13.1764942,"ECCENTRICITY":0.00021257,"INCLINATION":87.9155,"RA_OF_ASC_NODE":26.0206,"ARG_OF_PERICENTER":72.5973,"MEAN_ANOMALY":287.5391,"EPHEMERIS_TYPE":0,"CLASSIFICATION_TYPE":"U","NORAD_CAT_ID":49081,"ELEMENT_SET_NO":999,"REV_AT_EPOCH":22023,"BSTAR":-5.7779044e-5,"MEAN_MOTION_DOT":-1.0e-7,"MEAN_MOTION_DDOT":0},{"OBJECT_NAME":"ONEWEB-0293","OBJECT_ID":"2021-075H","EPOCH":"2026-03-07T14:03:51.099840","MEAN_MOTION":13.17650283,"ECCENTRICITY":0.0001975,"INCLINATION":87.9145,"RA_OF_ASC_NODE":26.0418,"ARG_OF_PERICENTER":81.1925,"MEAN_ANOMALY":278.943,"EPHEMERIS_TYPE":0,"CLASSIFICATION_TYPE":"U","NORAD_CAT_ID":49082,"ELEMENT_SET_NO":999,"REV_AT_EPOCH":22025,"BSTAR":0.00022203362,"MEAN_MOTION_DOT":9.9e-7,"MEAN_MOTION_DDOT":0},{"OBJECT_NAME":"ONEWEB-0294","OBJECT_ID":"2021-075J","EPOCH":"2026-03-07T13:17:34.610784","MEAN_MOTION":13.12441445,"ECCENTRICITY":0.00021519,"INCLINATION":87.9002,"RA_OF_ASC_NODE":10.8287,"ARG_OF_PERICENTER":81.7467,"MEAN_ANOMALY":278.3906,"EPHEMERIS_TYPE":0,"CLASSIFICATION_TYPE":"U","NORAD_CAT_ID":49083,"ELEMENT_SET_NO":999,"REV_AT_EPOCH":22124,"BSTAR":-0.00087627103,"MEAN_MOTION_DOT":-3.03e-6,"MEAN_MOTION_DDOT":0},{"OBJECT_NAME":"ONEWEB-0295","OBJECT_ID":"2021-075K","EPOCH":"2026-03-07T14:02:38.548896","MEAN_MOTION":13.1765021,"ECCENTRICITY":0.00019726,"INCLINATION":87.9145,"RA_OF_ASC_NODE":26.0468,"ARG_OF_PERICENTER":71.6991,"MEAN_ANOMALY":288.4355,"EPHEMERIS_TYPE":0,"CLASSIFICATION_TYPE":"U","NORAD_CAT_ID":49084,"ELEMENT_SET_NO":999,"REV_AT_EPOCH":22021,"BSTAR":9.5966162e-5,"MEAN_MOTION_DOT":5.0e-7,"MEAN_MOTION_DDOT":0},{"OBJECT_NAME":"ONEWEB-0296","OBJECT_ID":"2021-075L","EPOCH":"2026-03-07T09:08:44.695104","MEAN_MOTION":13.12441749,"ECCENTRICITY":0.00020319,"INCLINATION":87.9005,"RA_OF_ASC_NODE":10.8664,"ARG_OF_PERICENTER":71.254,"MEAN_ANOMALY":288.8809,"EPHEMERIS_TYPE":0,"CLASSIFICATION_TYPE":"U","NORAD_CAT_ID":49085,"ELEMENT_SET_NO":999,"REV_AT_EPOCH":22122,"BSTAR":0.00090542247,"MEAN_MOTION_DOT":3.38e-6,"MEAN_MOTION_DDOT":0},{"OBJECT_NAME":"ONEWEB-0297","OBJECT_ID":"2021-075M","EPOCH":"2026-03-07T08:02:52.293408","MEAN_MOTION":13.12442769,"ECCENTRICITY":0.00018185,"INCLINATION":87.8992,"RA_OF_ASC_NODE":10.9005,"ARG_OF_PERICENTER":76.0499,"MEAN_ANOMALY":284.0831,"EPHEMERIS_TYPE":0,"CLASSIFICATION_TYPE":"U","NORAD_CAT_ID":49086,"ELEMENT_SET_NO":999,"REV_AT_EPOCH":22182,"BSTAR":-0.00095107347,"MEAN_MOTION_DOT":-3.29e-6,"MEAN_MOTION_DDOT":0},{"OBJECT_NAME":"ONEWEB-0298","OBJECT_ID":"2021-075N","EPOCH":"2026-03-07T14:08:53.573280","MEAN_MOTION":13.17651262,"ECCENTRICITY":0.00016416,"INCLINATION":87.9145,"RA_OF_ASC_NODE":26.0428,"ARG_OF_PERICENTER":80.0126,"MEAN_ANOMALY":280.119,"EPHEMERIS_TYPE":0,"CLASSIFICATION_TYPE":"U","NORAD_CAT_ID":49087,"ELEMENT_SET_NO":999,"REV_AT_EPOCH":22024,"BSTAR":7.1238563e-5,"MEAN_MOTION_DOT":4.1e-7,"MEAN_MOTION_DDOT":0},{"OBJECT_NAME":"ONEWEB-0299","OBJECT_ID":"2021-075P","EPOCH":"2026-03-07T10:32:25.463040","MEAN_MOTION":13.1765051,"ECCENTRICITY":0.00018461,"INCLINATION":87.9163,"RA_OF_ASC_NODE":26.0428,"ARG_OF_PERICENTER":76.3662,"MEAN_ANOMALY":283.7675,"EPHEMERIS_TYPE":0,"CLASSIFICATION_TYPE":"U","NORAD_CAT_ID":49088,"ELEMENT_SET_NO":999,"REV_AT_EPOCH":22020,"BSTAR":0.00012246383,"MEAN_MOTION_DOT":6.0e-7,"MEAN_MOTION_DDOT":0}]
